OBJECT_NAME,OBJECT_ID,EPOCH,MEAN_MOTION,ECCENTRICITY,INCLINATION,RA_OF_ASC_NODE,ARG_OF_PERICENTER,MEAN_ANOMALY,EPHEMERIS_TYPE,CLASSIFICATION_TYPE,NORAD_CAT_ID,ELEMENT_SET_NO,REV_AT_EPOCH,BSTAR,MEAN_MOTION_DOT,MEAN_MOTION_DDOT
DUBAISAT-1,2009-041B,2026-06-04T06:26:59.381376,14.75103282,.00116963,98.0036,288.6695,110.3318,249.9149,0,U,35682,999,90319,.17012455E-3,.1097E-4,0
OCEANSAT-2,2009-051A,2026-06-04T23:24:41.469408,13.99662716,.00145372,98.2321,144.0453,273.6656,86.2848,0,U,35931,999,87762,.15960372E-3,.196E-5,0
WORLDVIEW-2 (WV-2),2009-055A,2026-06-04T21:59:57.538752,14.37895783,.00031684,98.4737,229.5351,254.0398,106.0440,0,U,35946,999,87388,.67050161E-4,.159E-5,0
SMOS,2009-059A,2026-06-04T02:59:01.518432,14.39765405,.00013459,98.4425,342.6506,92.5370,267.5972,0,U,36036,999,87157,.10635763E-3,.29E-5,0
YAOGAN-7,2009-069A,2026-06-04T16:47:36.747168,14.77996983,.00260069,98.0085,41.6431,80.1150,280.2994,0,U,36110,999,88778,.9417004E-4,.63E-5,0
TANDEM-X,2010-030A,2026-06-01T10:46:51.497760,15.19149361,.00017833,97.4445,160.3804,80.8335,279.3101,0,U,36605,999,88425,.38591092E-4,.743E-5,0
CARTOSAT-2B,2010-035A,2026-06-04T22:56:41.918208,14.78644085,.00102721,97.9953,206.5827,226.1500,133.8863,0,U,36795,999,85804,.72868462E-4,.482E-5,0
YAOGAN-10,2010-038A,2026-06-04T21:35:21.254784,14.85308612,.00016,97.8975,179.4013,88.9335,31.7640,0,U,36834,999,85538,.19976465E-3,.1663E-4,0
COSMO-SKYMED 4,2010-060A,2026-06-04T22:54:10.700928,14.82161119,.00014474,97.8883,339.7314,83.2730,276.8647,0,U,37216,999,84275,.10826245E-3,.81E-5,0
RESOURCESAT-2,2011-015A,2026-06-04T21:54:26.561952,14.21603759,.00101835,98.7646,223.4389,295.0390,64.9729,0,U,37387,999,78443,.70490452E-4,.11E-5,0
HAIYANG-2A,2011-043A,2026-06-04T22:54:50.983200,13.74587216,.00063853,99.3393,158.8985,116.4444,243.7361,0,U,37781,999,74497,.25711006E-3,.2E-5,0
RASAT,2011-044D,2026-06-04T21:58:19.951680,14.68154286,.00193809,98.0573,247.4994,229.3022,222.0284,0,U,37791,999,79138,.98632641E-4,.519E-5,0
SRMSAT,2011-058D,2026-06-04T06:57:29.209824,14.11572942,.00119136,19.9702,137.5332,62.8275,26.7062,0,U,37841,999,75599,.69540005E-4,.393E-5,0
PLEIADES 1A,2011-076F,2026-06-04T22:04:03.025344,14.58563122,.00014721,98.1975,231.1864,100.8713,346.2286,0,U,38012,999,77020,.99225403E-4,.416E-5,0
ZIYUAN 1-02C (ZY 1-02C),2011-079A,2026-06-04T23:34:29.252928,14.38204137,.00062729,98.4072,223.5452,356.3643,128.0221,0,U,38038,999,75745,.11785162E-3,.315E-5,0
ARIRANG-3 (KOMPSAT-3),2012-025B,2026-06-04T23:43:59.269152,14.62195294,.00060925,98.1171,113.6599,141.0373,219.1269,0,U,38338,999,74956,.11530824E-3,.534E-5,0
EXACTVIEW-1 (ADS-1B),2012-039C,2026-06-04T06:01:16.394016,14.24980717,.00104598,98.9763,272.3498,203.6463,156.4236,0,U,38709,999,72086,.90740372E-4,.166E-5,0
SPOT 6,2012-047A,2026-06-04T23:40:57.485280,14.58555654,.00014047,98.2119,223.4376,92.8703,267.2657,0,U,38755,999,73127,.98396496E-4,.412E-5,0
PLEIADES 1B,2012-068A,2026-06-04T22:29:22.728768,14.58552853,.00015173,98.1946,231.1568,95.8128,264.3245,0,U,39019,999,71906,.95966037E-4,.4E-5,0
GOKTURK 2,2012-073A,2026-06-04T22:36:47.356992,14.75531022,.00019906,97.6820,353.9872,63.3780,296.7634,0,U,39030,999,72270,.99993669E-4,.634E-5,0
LANDSAT 8,2013-008A,2026-06-04T22:31:54.314112,14.57110483,.00014521,98.2303,226.2191,97.6128,262.5235,0,U,39084,999,69611,.98630808E-4,.399E-5,0
SARAL,2013-009A,2026-06-04T21:22:07.207680,14.32852909,.00014104,98.5558,342.6136,2.5451,357.5740,0,U,39086,999,69384,.4636973E-4,.83E-6,0
GAOFEN-1,2013-018A,2026-06-04T22:22:59.782368,14.76521379,.00160813,97.9095,228.2488,309.6328,50.3463,0,U,39150,999,70643,-.23127244E-4,-.213E-5,0
VNREDSAT 1,2013-021B,2026-06-04T22:19:38.401248,14.64843810,.00016361,97.9082,209.8166,91.6554,268.4837,0,U,39160,999,69849,.1348618E-3,.675E-5,0
ARIRANG-5 (KOMPSAT-5),2013-042A,2026-06-04T22:17:01.093632,15.04545315,.00037546,97.6201,342.8007,155.3717,204.7689,0,U,39227,999,70201,.19278647E-3,.2642E-4,0
SKYSAT-A,2013-066C,2026-06-04T16:35:08.072160,15.12903626,.00212375,97.3816,205.4864,2.0604,358.0711,0,U,39418,999,68659,.22638534E-3,.3943E-4,0
DUBAISAT-2,2013-066D,2026-06-04T22:40:50.450304,15.10086350,.0013182,97.4566,146.4113,77.0571,283.2130,0,U,39419,999,68454,.25445575E-3,.4089E-4,0
GPM-CORE,2014-009C,2026-06-04T21:50:38.878080,15.45395233,.00120456,64.9730,349.2662,268.9451,91.0309,0,U,39574,999,69591,.19242592E-3,.9022E-4,0
SENTINEL-1A,2014-016A,2026-06-04T22:56:44.767680,14.59199171,.00014296,98.1777,163.6670,80.2939,279.8422,0,U,39634,999,64823,.40662737E-4,.146E-5,0
KAZEOSAT 1,2014-024A,2026-06-04T22:46:12.019872,14.42074958,.00015056,98.3206,228.6996,77.9691,282.1667,0,U,39731,999,63679,.802548E-4,.221E-5,0
