DUBAISAT-1              
1 35682U 09041B   26155.26874284  .00001097  00000+0  17012-3 0  9998
2 35682  98.0036 288.6695 0011696 110.3318 249.9149 14.75103282903199
OCEANSAT-2              
1 35931U 09051A   26155.97547997  .00000196  00000+0  15960-3 0  9991
2 35931  98.2321 144.0453 0014537 273.6656  86.2848 13.99662716877620
WORLDVIEW-2 (WV-2)      
1 35946U 09055A   26155.91663818  .00000159  00000+0  67050-4 0  9993
2 35946  98.4737 229.5351 0003168 254.0398 106.0440 14.37895783873887
SMOS                    
1 36036U 09059A   26155.12432313  .00000290  00000+0  10636-3 0  9998
2 36036  98.4425 342.6506 0001345  92.5370 267.5972 14.39765405871577
YAOGAN-7                
1 36110U 09069A   26155.69973087  .00000630  00000+0  94170-4 0  9996
2 36110  98.0085  41.6431 0026006  80.1150 280.2994 14.77996983887786
TANDEM-X                
1 36605U 10030A   26152.44920715  .00000743  00000+0  38591-4 0  9995
2 36605  97.4445 160.3804 0001783  80.8335 279.3101 15.19149361884253
CARTOSAT-2B             
1 36795U 10035A   26155.95604072  .00000482  00000+0  72868-4 0  9999
2 36795  97.9953 206.5827 0010272 226.1500 133.8863 14.78644085858046
YAOGAN-10               
1 36834U 10038A   26155.89955156  .00001663  00000+0  19976-3 0  9993
2 36834  97.8975 179.4013 0001600  88.9335  31.7640 14.85308612855387
COSMO-SKYMED 4          
1 37216U 10060A   26155.95429052  .00000810  00000+0  10826-3 0  9999
2 37216  97.8883 339.7314 0001447  83.2730 276.8647 14.82161119842753
RESOURCESAT-2           
1 37387U 11015A   26155.91280743  .00000110  00000+0  70490-4 0  9994
2 37387  98.7646 223.4389 0010183 295.0390  64.9729 14.21603759784433
HAIYANG-2A              
1 37781U 11043A   26155.95475675  .00000200  00000+0  25711-3 0  9992
2 37781  99.3393 158.8985 0006385 116.4444 243.7361 13.74587216744975
RASAT                   
1 37791U 11044D   26155.91550870  .00000519  00000+0  98633-4 0  9998
2 37791  98.0573 247.4994 0019380 229.3022 222.0284 14.68154286791384
SRMSAT                  
1 37841U 11058D   26155.28992141  .00000393  00000+0  69540-4 0  9995
2 37841  19.9702 137.5332 0011913  62.8275  26.7062 14.11572942755996
PLEIADES 1A             
1 38012U 11076F   26155.91947946  .00000416  00000+0  99225-4 0  9998
2 38012  98.1975 231.1864 0001472 100.8713 346.2286 14.58563122770208
ZIYUAN 1-02C (ZY 1-02C) 
1 38038U 11079A   26155.98228302  .00000315  00000+0  11785-3 0  9996
2 38038  98.4072 223.5452 0006272 356.3643 128.0221 14.38204137757451
ARIRANG-3 (KOMPSAT-3)   
1 38338U 12025B   26155.98888043  .00000534  00000+0  11531-3 0  9997
2 38338  98.1171 113.6599 0006092 141.0373 219.1269 14.62195294749568
EXACTVIEW-1 (ADS-1B)    
1 38709U 12039C   26155.25088419  .00000166  00000+0  90740-4 0  9994
2 38709  98.9763 272.3498 0010459 203.6463 156.4236 14.24980717720862
SPOT 6                  
1 38755U 12047A   26155.98677645  .00000412  00000+0  98396-4 0  9998
2 38755  98.2119 223.4376 0001404  92.8703 267.2657 14.58555654731278
PLEIADES 1B             
1 39019U 12068A   26155.93706862  .00000400  00000+0  95966-4 0  9991
2 39019  98.1946 231.1568 0001517  95.8128 264.3245 14.58552853719069
GOKTURK 2               
1 39030U 12073A   26155.94221478  .00000634  00000+0  99994-4 0  9990
2 39030  97.6820 353.9872 0001990  63.3780 296.7634 14.75531022722707
LANDSAT 8               
1 39084U 13008A   26155.93882308  .00000399  00000+0  98631-4 0  9997
2 39084  98.2303 226.2191 0001452  97.6128 262.5235 14.57110483696111
SARAL                   
1 39086U 13009A   26155.89036120  .00000083  00000+0  46370-4 0  9991
2 39086  98.5558 342.6136 0001410   2.5451 357.5740 14.32852909693840
GAOFEN-1                
1 39150U 13018A   26155.93263637 -.00000213  00000+0 -23127-4 0  9995
2 39150  97.9095 228.2488 0016081 309.6328  50.3463 14.76521379706436
VNREDSAT 1              
1 39160U 13021B   26155.93030557  .00000675  00000+0  13486-3 0  9999
2 39160  97.9082 209.8166 0001636  91.6554 268.4837 14.64843810698497
ARIRANG-5 (KOMPSAT-5)   
1 39227U 13042A   26155.92848488  .00002642  00000+0  19279-3 0  9997
2 39227  97.6201 342.8007 0003754 155.3717 204.7689 15.04545315702011
SKYSAT-A                
1 39418U 13066C   26155.69106565  .00003943  00000+0  22639-3 0  9991
2 39418  97.3816 205.4864 0021237   2.0604 358.0711 15.12903626686591
DUBAISAT-2              
1 39419U 13066D   26155.94502836  .00004089  00000+0  25446-3 0  9992
2 39419  97.4566 146.4113 0013182  77.0571 283.2130 15.10086350684542
GPM-CORE                
1 39574U 14009C   26155.91017220  .00009022  00000+0  19243-3 0  9997
2 39574  64.9730 349.2662 0012045 268.9451  91.0309 15.45395233695910
SENTINEL-1A             
1 39634U 14016A   26155.95607370  .00000146  00000+0  40663-4 0  9996
2 39634  98.1777 163.6670 0001429  80.2939 279.8422 14.59199171648236
KAZEOSAT 1              
1 39731U 14024A   26155.94875023  .00000221  00000+0  80255-4 0  9999
2 39731  98.3206 228.6996 0001505  77.9691 282.1667 14.42074958636792
